{"type": "FeatureCollection", "features": [ {"type": "Feature", "properties": {"norad_id": 65304, "name": "DRAGON CRS-33", "group": "stations", "lat": 51.53546450152637, "lon": 162.24650503871317, "alt_km": 411.69099607952194, "timestamp": "2025-12-27T18:38:02.239031+00:00", "meta": {"OBJECT_NAME": "DRAGON CRS-33", "OBJECT_ID": "2025-186A", "EPOCH": "2025-12-27T04:18:31.505184", "MEAN_MOTION": 15.49864323, "ECCENTRICITY": 0.00032283, "INCLINATION": 51.6319, "RA_OF_ASC_NODE": 70.9638, "ARG_OF_PERICENTER": 308.9173, "MEAN_ANOMALY": 51.1527, "EPHEMERIS_TYPE": 0, "CLASSIFICATION_TYPE": "U", "NORAD_CAT_ID": 65304, "ELEMENT_SET_NO": 999, "REV_AT_EPOCH": 11, "BSTAR": 0.0002516974, "MEAN_MOTION_DOT": 0.00013867, "MEAN_MOTION_DDOT": 0}, "tle": {"line1": "1 65304U 25186A   25361.17953131  .00013867  00000+0  25170-3 0  9999", "line2": "2 65304  51.6319  70.9638 0003228 308.9173  51.1527 15.49864323   112"}}, "geometry": {"type": "Point", "coordinates": [162.24650503871317, 51.53546450152637]}}, {"type": "Feature", "properties": {"norad_id": 65586, "name": "PROGRESS-MS 32", "group": "stations", "lat": 51.53546446027858, "lon": 162.246506180148, "alt_km": 411.69099610203557, "timestamp": "2025-12-27T18:38:02.239042+00:00", "meta": {"OBJECT_NAME": "PROGRESS-MS 32", "OBJECT_ID": "2025-204A", "EPOCH": "2025-12-27T04:18:31.505184", "MEAN_MOTION": 15.49864323, "ECCENTRICITY": 0.00032283, "INCLINATION": 51.6319, "RA_OF_ASC_NODE": 70.9638, "ARG_OF_PERICENTER": 308.9173, "MEAN_ANOMALY": 51.1527, "EPHEMERIS_TYPE": 0, "CLASSIFICATION_TYPE": "U", "NORAD_CAT_ID": 65586, "ELEMENT_SET_NO": 999, "REV_AT_EPOCH": 27, "BSTAR": 0.0002516974, "MEAN_MOTION_DOT": 0.00013867, "MEAN_MOTION_DDOT": 0}, "tle": {"line1": "1 65586U 25204A   25361.17953131  .00013867  00000+0  25170-3 0  9992", "line2": "2 65586  51.6319  70.9638 0003228 308.9173  51.1527 15.49864323   271"}}, "geometry": {"type": "Point", "coordinates": [162.246506180148, 51.53546446027858]}}, {"type": "Feature", "properties": {"norad_id": 65616, "name": "CYGNUS NG-23", "group": "stations", "lat": 51.53546441903088, "lon": 162.24650732158022, "alt_km": 411.69099612455193, "timestamp": "2025-12-27T18:38:02.239053+00:00", "meta": {"OBJECT_NAME": "CYGNUS NG-23", "OBJECT_ID": "2025-208A", "EPOCH": "2025-12-27T04:18:31.505184", "MEAN_MOTION": 15.49864323, "ECCENTRICITY": 0.00032283, "INCLINATION": 51.6319, "RA_OF_ASC_NODE": 70.9638, "ARG_OF_PERICENTER": 308.9173, "MEAN_ANOMALY": 51.1527, "EPHEMERIS_TYPE": 0, "CLASSIFICATION_TYPE": "U", "NORAD_CAT_ID": 65616, "ELEMENT_SET_NO": 999, "REV_AT_EPOCH": 22, "BSTAR": 0.0002516974, "MEAN_MOTION_DOT": 0.00013867, "MEAN_MOTION_DDOT": 0}, "tle": {"line1": "1 65616U 25208A   25361.17953131  .00013867  00000+0  25170-3 0  9990", "line2": "2 65616  51.6319  70.9638 0003228 308.9173  51.1527 15.49864323   220"}}, "geometry": {"type": "Point", "coordinates": [162.24650732158022, 51.53546441903088]}}, {"type": "Feature", "properties": {"norad_id": 65729, "name": "DRAGONFLY", "group": "stations", "lat": -19.08934871154038, "lon": 42.55119003508868, "alt_km": 335.72670212221874, "timestamp": "2025-12-27T18:38:02.239064+00:00", "meta": {"OBJECT_NAME": "DRAGONFLY", "OBJECT_ID": "1998-067XH", "EPOCH": "2025-12-27T09:36:53.510976", "MEAN_MOTION": 15.772546, "ECCENTRICITY": 0.0008326, "INCLINATION": 51.6252, "RA_OF_ASC_NODE": 60.4091, "ARG_OF_PERICENTER": 3.6197, "MEAN_ANOMALY": 356.4863, "EPHEMERIS_TYPE": 0, "CLASSIFICATION_TYPE": "U", "NORAD_CAT_ID": 65729, "ELEMENT_SET_NO": 999, "REV_AT_EPOCH": 1547, "BSTAR": 0.0013487, "MEAN_MOTION_DOT": 0.00232349, "MEAN_MOTION_DDOT": 0}, "tle": {"line1": "1 65729U 98067XH  25361.40061934  .00232349  00000+0  13487-2 0  9990", "line2": "2 65729  51.6252  60.4091 0008326   3.6197 356.4863 15.77254600 15476"}}, "geometry": {"type": "Point", "coordinates": [42.55119003508868, -19.08934871154038]}}, {"type": "Feature", "properties": {"norad_id": 65731, "name": "1998-067XK", "group": "stations", "lat": -28.449228880673786, "lon": 35.35664814556758, "alt_km": 362.81067414202516, "timestamp": "2025-12-27T18:38:02.239074+00:00", "meta": {"OBJECT_NAME": "1998-067XK", "OBJECT_ID": "1998-067XK", "EPOCH": "2025-12-27T11:08:53.834208", "MEAN_MOTION": 15.68658441, "ECCENTRICITY": 0.0005069, "INCLINATION": 51.6288, "RA_OF_ASC_NODE": 62.37, "ARG_OF_PERICENTER": 336.6665, "MEAN_ANOMALY": 23.4101, "EPHEMERIS_TYPE": 0, "CLASSIFICATION_TYPE": "U", "NORAD_CAT_ID": 65731, "ELEMENT_SET_NO": 999, "REV_AT_EPOCH": 1545, "BSTAR": 0.00095755, "MEAN_MOTION_DOT": 0.00112248, "MEAN_MOTION_DDOT": 0}, "tle": {"line1": "1 65731U 98067XK  25361.46451197  .00112248  00000+0  95755-3 0  9997", "line2": "2 65731  51.6288  62.3700 0005069 336.6665  23.4101 15.68658441 15451"}}, "geometry": {"type": "Point", "coordinates": [35.35664814556758, -28.449228880673786]}}, {"type": "Feature", "properties": {"norad_id": 65732, "name": "RSP-03", "group": "stations", "lat": 43.90208831414255, "lon": -170.00582636599688, "alt_km": 348.07323575911505, "timestamp": "2025-12-27T18:38:02.239087+00:00", "meta": {"OBJECT_NAME": "RSP-03", "OBJECT_ID": "1998-067XL", "EPOCH": "2025-12-27T10:30:36.886752", "MEAN_MOTION": 15.72555826, "ECCENTRICITY": 0.0006137, "INCLINATION": 51.6262, "RA_OF_ASC_NODE": 61.4259, "ARG_OF_PERICENTER": 344.1369, "MEAN_ANOMALY": 15.9436, "EPHEMERIS_TYPE": 0, "CLASSIFICATION_TYPE": "U", "NORAD_CAT_ID": 65732, "ELEMENT_SET_NO": 999, "REV_AT_EPOCH": 1547, "BSTAR": 0.0011231, "MEAN_MOTION_DOT": 0.00156013, "MEAN_MOTION_DDOT": 0}, "tle": {"line1": "1 65732U 98067XL  25361.43792693  .00156013  00000+0  11231-2 0  9998", "line2": "2 65732  51.6262  61.4259 0006137 344.1369  15.9436 15.72555826 15472"}}, "geometry": {"type": "Point", "coordinates": [-170.00582636599688, 43.90208831414255]}}, {"type": "Feature", "properties": {"norad_id": 65733, "name": "GHS-01", "group": "stations", "lat": 51.59452655073609, "lon": 149.19264130202052, "alt_km": 316.35945167650334, "timestamp": "2025-12-27T18:38:02.239098+00:00", "meta": {"OBJECT_NAME": "GHS-01", "OBJECT_ID": "1998-067XM", "EPOCH": "2025-12-27T12:11:15.233280", "MEAN_MOTION": 15.81984355, "ECCENTRICITY": 0.000952, "INCLINATION": 51.6274, "RA_OF_ASC_NODE": 58.8829, "ARG_OF_PERICENTER": 8.1386, "MEAN_ANOMALY": 351.9769, "EPHEMERIS_TYPE": 0, "CLASSIFICATION_TYPE": "U", "NORAD_CAT_ID": 65733, "ELEMENT_SET_NO": 999, "REV_AT_EPOCH": 1551, "BSTAR": 0.0015063, "MEAN_MOTION_DOT": 0.00325699, "MEAN_MOTION_DDOT": 0}, "tle": {"line1": "1 65733U 98067XM  25361.50781520  .00325699  00000+0  15063-2 0  9999", "line2": "2 65733  51.6274  58.8829 0009520   8.1386 351.9769 15.81984355 15514"}}, "geometry": {"type": "Point", "coordinates": [149.19264130202052, 51.59452655073609]}}, {"type": "Feature", "properties": {"norad_id": 65941, "name": "YOTSUBA-KULOVER", "group": "stations", "lat": 50.360251485852984, "lon": 137.3110703861442, "alt_km": 375.66396878187425, "timestamp": "2025-12-27T18:38:02.239109+00:00", "meta": {"OBJECT_NAME": "YOTSUBA-KULOVER", "OBJECT_ID": "1998-067XN", "EPOCH": "2025-12-27T06:00:30.216672", "MEAN_MOTION": 15.61434985, "ECCENTRICITY": 0.00027547, "INCLINATION": 51.629, "RA_OF_ASC_NODE": 66.9415, "ARG_OF_PERICENTER": 9.199, "MEAN_ANOMALY": 350.9054, "EPHEMERIS_TYPE": 0, "CLASSIFICATION_TYPE": "U", "NORAD_CAT_ID": 65941, "ELEMENT_SET_NO": 999, "REV_AT_EPOCH": 1212, "BSTAR": 0.00083629815, "MEAN_MOTION_DOT": 0.00072986, "MEAN_MOTION_DDOT": 0}, "tle": {"line1": "1 65941U 98067XN  25361.25034973  .00072986  00000+0  83630-3 0  9999", "line2": "2 65941  51.6290  66.9415 0002754   9.1990 350.9054 15.61434985 12125"}}, "geometry": {"type": "Point", "coordinates": [137.3110703861442, 50.360251485852984]}}, {"type": "Feature", "properties": {"norad_id": 65942, "name": "BOTAN", "group": "stations", "lat": -51.25779813151842, "lon": -35.895001385805706, "alt_km": 374.5218894951795, "timestamp": "2025-12-27T18:38:02.239119+00:00", "meta": {"OBJECT_NAME": "BOTAN", "OBJECT_ID": "1998-067XP", "EPOCH": "2025-12-27T05:15:28.443744", "MEAN_MOTION": 15.66006349, "ECCENTRICITY": 0.00036864, "INCLINATION": 51.6275, "RA_OF_ASC_NODE": 65.9806, "ARG_OF_PERICENTER": 351.9823, "MEAN_ANOMALY": 8.1114, "EPHEMERIS_TYPE": 0, "CLASSIFICATION_TYPE": "U", "NORAD_CAT_ID": 65942, "ELEMENT_SET_NO": 999, "REV_AT_EPOCH": 1213, "BSTAR": 0.0011595855, "MEAN_MOTION_DOT": 0.00122237, "MEAN_MOTION_DDOT": 0}, "tle": {"line1": "1 65942U 98067XP  25361.21907921  .00122237  00000+0  11596-2 0  9994", "line2": "2 65942  51.6275  65.9806 0003686 351.9823   8.1114 15.66006349 12134"}}, "geometry": {"type": "Point", "coordinates": [-35.895001385805706, -51.25779813151842]}}, {"type": "Feature", "properties": {"norad_id": 65943, "name": "E-KAGAKU-1", "group": "stations", "lat": 50.25496856054004, "lon": 136.61959100268479, "alt_km": 376.57637310751124, "timestamp": "2025-12-27T18:38:02.239130+00:00", "meta": {"OBJECT_NAME": "E-KAGAKU-1", "OBJECT_ID": "1998-067XQ", "EPOCH": "2025-12-26T11:34:38.215200", "MEAN_MOTION": 15.61326456, "ECCENTRICITY": 0.00014737, "INCLINATION": 51.6304, "RA_OF_ASC_NODE": 70.8185, "ARG_OF_PERICENTER": 333.5123, "MEAN_ANOMALY": 26.5795, "EPHEMERIS_TYPE": 0, "CLASSIFICATION_TYPE": "U", "NORAD_CAT_ID": 65943, "ELEMENT_SET_NO": 999, "REV_AT_EPOCH": 1200, "BSTAR": 0.0007949653, "MEAN_MOTION_DOT": 0.00069021, "MEAN_MOTION_DDOT": 0}, "tle": {"line1": "1 65943U 98067XQ  25360.48238675  .00069021  00000+0  79497-3 0  9992", "line2": "2 65943  51.6304  70.8185 0001473 333.5123  26.5795 15.61326456 12008"}}, "geometry": {"type": "Point", "coordinates": [136.61959100268479, 50.25496856054004]}}]}